{
    "links": {
        "self": "http://www.neowsapp.com/rest/v1/neo/3989404?api_key=iIulBulltgU6a56xZRHN4H3l9WmuAYTsLGpBGhQ2"
    },
    "id": "3989404",
    "neo_reference_id": "3989404",
    "name": "(2020 CJ)",
    "designation": "2020 CJ",
    "nasa_jpl_url": "http://ssd.jpl.nasa.gov/sbdb.cgi?sstr=3989404",
    "absolute_magnitude_h": 26.879,
    "estimated_diameter": {
        "kilometers": {
            "estimated_diameter_min": 0.0111880649,
            "estimated_diameter_max": 0.0250172736
        },
        "meters": {
            "estimated_diameter_min": 11.1880648906,
            "estimated_diameter_max": 25.017273632
        },
        "miles": {
            "estimated_diameter_min": 0.0069519391,
            "estimated_diameter_max": 0.0155450083
        },
        "feet": {
            "estimated_diameter_min": 36.7062508156,
            "estimated_diameter_max": 82.0776720228
        }
    },
    "is_potentially_hazardous_asteroid": false,
    "close_approach_data": [
        {
            "close_approach_date": "2010-08-30",
            "close_approach_date_full": "2010-Aug-30 01:42",
            "epoch_date_close_approach": 1283132520000,
            "relative_velocity": {
                "kilometers_per_second": "13.2144385127",
                "kilometers_per_hour": "47571.978645689",
                "miles_per_hour": "29559.3775090394"
            },
            "miss_distance": {
                "astronomical": "0.0979764141",
                "lunar": "38.1128250849",
                "kilometers": "14657062.859597967",
                "miles": "9107476.5416552646"
            },
            "orbiting_body": "Mars"
        },
        {
            "close_approach_date": "2020-01-31",
            "close_approach_date_full": "2020-Jan-31 04:04",
            "epoch_date_close_approach": 1580443440000,
            "relative_velocity": {
                "kilometers_per_second": "6.7519194895",
                "kilometers_per_hour": "24306.9101623436",
                "miles_per_hour": "15103.3687061518"
            },
            "miss_distance": {
                "astronomical": "0.0020890451",
                "lunar": "0.8126385439",
                "kilometers": "312516.697293937",
                "miles": "194188.8710408506"
            },
            "orbiting_body": "Moon"
        },
        {
            "close_approach_date": "2020-01-31",
            "close_approach_date_full": "2020-Jan-31 19:03",
            "epoch_date_close_approach": 1580497380000,
            "relative_velocity": {
                "kilometers_per_second": "6.5450909469",
                "kilometers_per_hour": "23562.3274089574",
                "miles_per_hour": "14640.7139391935"
            },
            "miss_distance": {
                "astronomical": "0.0023625792",
                "lunar": "0.9190433088",
                "kilometers": "353436.816026304",
                "miles": "219615.4537748352"
            },
            "orbiting_body": "Earth"
        },
        {
            "close_approach_date": "2029-12-14",
            "close_approach_date_full": "2029-Dec-14 11:09",
            "epoch_date_close_approach": 1891940940000,
            "relative_velocity": {
                "kilometers_per_second": "13.1144180239",
                "kilometers_per_hour": "47211.9048861476",
                "miles_per_hour": "29335.6416777288"
            },
            "miss_distance": {
                "astronomical": "0.2154472041",
                "lunar": "83.8089623949",
                "kilometers": "32230442.830815267",
                "miles": "20027068.5075620046"
            },
            "orbiting_body": "Earth"
        },
        {
            "close_approach_date": "2034-12-01",
            "close_approach_date_full": "2034-Dec-01 10:01",
            "epoch_date_close_approach": 2048580060000,
            "relative_velocity": {
                "kilometers_per_second": "19.7197953073",
                "kilometers_per_hour": "70991.2631062458",
                "miles_per_hour": "44111.2101228781"
            },
            "miss_distance": {
                "astronomical": "0.4321429844",
                "lunar": "168.1036209316",
                "kilometers": "64647670.001683228",
                "miles": "40170199.4221474264"
            },
            "orbiting_body": "Earth"
        }
    ],
    "orbital_data": {
        "orbit_id": "5",
        "orbit_determination_date": "2020-02-22 15:13:45",
        "first_observation_date": "2020-02-01",
        "last_observation_date": "2020-02-06",
        "data_arc_in_days": 5,
        "observations_used": 46,
        "orbit_uncertainty": "7",
        "minimum_orbit_intersection": ".000262601",
        "jupiter_tisserand_invariant": "3.882",
        "epoch_osculation": "2459000.5",
        "eccentricity": ".4641373205203719",
        "semi_major_axis": "1.837997907681394",
        "inclination": "3.236823524529498",
        "ascending_node_longitude": "128.7767135919268",
        "orbital_period": "910.1562293586341",
        "perihelion_distance": ".9849144836881021",
        "perihelion_argument": "357.6198222049973",
        "aphelion_distance": "2.691081331674687",
        "perihelion_time": "2458876.465528606600",
        "mean_anomaly": "49.06015941141175",
        "mean_motion": ".3955364896570379",
        "equinox": "J2000",
        "orbit_class": {
            "orbit_class_type": "APO",
            "orbit_class_description": "Near-Earth asteroid orbits which cross the Earth’s orbit similar to that of 1862 Apollo",
            "orbit_class_range": "a (semi-major axis) > 1.0 AU; q (perihelion) < 1.017 AU"
        }
    },
    "is_sentry_object": false
}